NORAD_CAT_ID,OBJECT_NAME,OBJECT_TYPE,EPOCH,MEAN_MOTION,ECCENTRICITY,INCLINATION,RA_OF_ASC_NODE,ARG_OF_PERICENTER,MEAN_ANOMALY,BSTAR,MEAN_MOTION_DOT,MEAN_MOTION_DDOT,TLE_LINE0,TLE_LINE1,TLE_LINE2,SEMIMAJOR_AXIS,PERIOD,APOGEE,PERIGEE,DECAYED
53426.0,STARLINK-4558,PAYLOAD,2023-12-02 02:32:50,15.08879705,0.0001486,53.2157,223.9301,87.8683,272.2479,0.00084096,0.00013136,0.0,0 STARLINK-4558,1 53426U 22097AQ  23336.10613562  .00013136  00000-0  84096-3 0  9995,2 53426  53.2157 223.9301 0001486  87.8683 272.2479 15.08879705 73210,6917.759,95.435,540.652,538.596,0.0
53426.0,STARLINK-4558,PAYLOAD,2023-12-02 20:02:05,15.08831633,0.0001404,53.2153,220.6636,99.5098,260.6053,-0.00024066,-4.115e-05,0.0,0 STARLINK-4558,1 53426U 22097AQ  23336.83479140 -.00004115  00000-0 -24066-3 0  9997,2 53426  53.2153 220.6636 0001404  99.5098 260.6053 15.08831633 73320,6917.906,95.438,540.742,538.8,0.0
53426.0,STARLINK-4558,PAYLOAD,2023-12-02 21:37:29,15.08831332,0.0001464,53.2154,220.3662,89.2413,270.8747,-0.00025072,-4.275e-05,0.0,0 STARLINK-4558,1 53426U 22097AQ  23336.90103238 -.00004275  00000-0 -25072-3 0  9992,2 53426  53.2154 220.3662 0001464  89.2413 270.8747 15.08831332 73813,6917.907,95.438,540.785,538.759,0.0
53426.0,STARLINK-4558,PAYLOAD,2023-12-03 02:23:38,15.08829372,0.0001503,53.2156,219.4723,71.4446,288.6709,-0.00016751,-2.952e-05,0.0,0 STARLINK-4558,1 53426U 22097AQ  23337.09975641 -.00002952  00000-0 -16751-3 0  9992,2 53426  53.2156 219.4723 0001503  71.4446 288.6709 15.08829372 73844,6917.913,95.438,540.818,538.738,0.0
53426.0,STARLINK-4558,PAYLOAD,2023-12-03 23:03:40,15.08827959,0.0001492,53.2152,215.6074,82.1744,277.9417,8.4191e-05,1.052e-05,0.0,0 STARLINK-4558,1 53426U 22097AQ  23337.96088364  .00001052  00000-0  84191-4 0  9997,2 53426  53.2152 215.6074 0001492  82.1744 277.9417 15.08827959 73491,6917.917,95.438,540.814,538.75,0.0
53426.0,STARLINK-4558,PAYLOAD,2023-12-04 16:32:54,15.08840685,0.0001431,53.2159,212.3332,75.1023,285.0127,0.0003839,5.827e-05,0.0,0 STARLINK-4558,1 53426U 22097AQ  23338.68952359  .00005827  00000-0  38390-3 0  9994,2 53426  53.2159 212.3332 0001431  75.1023 285.0127 15.08840685 73606,6917.878,95.438,540.733,538.753,0.0
53426.0,STARLINK-4558,PAYLOAD,2023-12-06 01:55:59,15.08856271,0.0001557,53.2156,206.0909,87.7364,272.3806,-2.5361e-05,-6.92e-06,0.0,0 STARLINK-4558,1 53426U 22097AQ  23340.08055138 -.00000692  00000-0 -25361-4 0  9992,2 53426  53.2156 206.0909 0001557  87.7364 272.3806 15.08856271 73813,6917.831,95.437,540.773,538.619,0.0
53426.0,STARLINK-4558,PAYLOAD,2023-12-06 22:36:00,15.08838713,0.0001221,53.2153,202.2272,114.5354,245.5766,-2.6523e-05,-7.1e-06,0.0,0 STARLINK-4558,1 53426U 22097AQ  23340.94167551 -.00000710  00000-0 -26523-4 0  9992,2 53426  53.2153 202.2272 0001221 114.5354 245.5766 15.08838713 73949,6917.884,95.438,540.594,538.905,0.0
53426.0,STARLINK-4558,PAYLOAD,2023-12-08 00:02:11,15.08836414,0.0001497,53.2155,197.4663,79.7386,280.3775,5.9547e-05,6.6e-06,0.0,0 STARLINK-4558,1 53426U 22097AQ  23342.00152273  .00000660  00000-0  59547-4 0  9990,2 53426  53.2155 197.4663 0001497  79.7386 280.3775 15.08836414 74104,6917.891,95.438,540.792,538.721,0.0
53426.0,STARLINK-4558,PAYLOAD,2023-12-09 14:11:26,15.08843651,0.0001517,53.2155,190.329,79.7033,280.413,0.00013739,1.899e-05,0.0,0 STARLINK-4558,1 53426U 22097AQ  23343.59128103  .00001899  00000-0  13739-3 0  9997,2 53426  53.2155 190.3290 0001517  79.7033 280.4130 15.08843651 74820,6917.869,95.437,540.784,538.685,0.0
53426.0,STARLINK-4558,PAYLOAD,2023-12-09 23:43:44,15.08846374,0.0001413,53.217,188.5467,84.7739,275.3414,6.1661e-05,6.94e-06,0.0,0 STARLINK-4558,1 53426U 22097AQ  23343.98871451  .00000694  00000-0  61661-4 0  9991,2 53426  53.2170 188.5467 0001413  84.7739 275.3414 15.08846374 74885,6917.861,95.437,540.703,538.748,0.0
53426.0,STARLINK-4558,PAYLOAD,2023-12-10 18:48:24,15.08831762,0.0001073,53.216,184.976,99.5249,260.5864,0.0002362,3.472e-05,0.0,0 STARLINK-4558,1 53426U 22097AQ  23344.78361427  .00003472  00000-0  23620-3 0  9996,2 53426  53.2160 184.9760 0001073  99.5249 260.5864 15.08831762 74523,6917.906,95.438,540.513,539.028,0.0
53426.0,STARLINK-4558,PAYLOAD,2023-12-10 20:23:46,15.08839534,0.0001476,53.2159,184.6777,105.3927,254.7229,3.6691e-05,2.96e-06,0.0,0 STARLINK-4558,1 53426U 22097AQ  23344.84984001  .00000296  00000-0  36691-4 0  9996,2 53426  53.2159 184.6777 0001476 105.3927 254.7229 15.08839534 75012,6917.882,95.438,540.768,538.726,0.0
53426.0,STARLINK-4558,PAYLOAD,2023-12-11 18:39:10,15.08839552,0.0001481,53.216,180.5148,104.9751,255.1405,2.7448e-05,1.49e-06,0.0,0 STARLINK-4558,1 53426U 22097AQ  23345.77720088  .00000149  00000-0  27448-4 0  9999,2 53426  53.2160 180.5148 0001481 104.9751 255.1405 15.08839552 75153,6917.882,95.438,540.771,538.722,0.0
53426.0,STARLINK-4558,PAYLOAD,2023-12-12 18:29:57,15.08836904,0.0001492,53.2165,176.0585,108.1574,251.958,5.3082e-05,5.57e-06,0.0,0 STARLINK-4558,1 53426U 22097AQ  23346.77080354  .00000557  00000-0  53082-4 0  9991,2 53426  53.2165 176.0585 0001492 108.1574 251.9580 15.08836904 74823,6917.89,95.438,540.787,538.723,0.0
53426.0,STARLINK-4558,PAYLOAD,2023-12-13 19:56:07,15.08841353,0.0001343,53.216,171.2979,94.5756,265.5389,9.3116e-05,1.194e-05,0.0,0 STARLINK-4558,1 53426U 22097AQ  23347.83064120  .00001194  00000-0  93116-4 0  9992,2 53426  53.2160 171.2979 0001343  94.5756 265.5389 15.08841353 74986,6917.876,95.437,540.67,538.812,0.0
53426.0,STARLINK-4558,PAYLOAD,2023-12-14 19:46:54,15.0884025,0.0001394,53.2166,166.837,87.4964,272.6188,5.9962e-05,6.66e-06,0.0,0 STARLINK-4558,1 53426U 22097AQ  23348.82424419  .00000666  00000-0  59962-4 0  9997,2 53426  53.2166 166.8370 0001394  87.4964 272.6188 15.08840250 75617,6917.88,95.438,540.709,538.78,0.0
53426.0,STARLINK-4558,PAYLOAD,2023-12-15 18:02:18,15.08839499,0.00015,53.2165,162.6743,80.1659,279.9503,3.6552e-05,2.94e-06,0.0,0 STARLINK-4558,1 53426U 22097AQ  23349.75160629  .00000294  00000-0  36552-4 0  9997,2 53426  53.2165 162.6743 0001500  80.1659 279.9503 15.08839499 75753,6917.882,95.438,540.785,538.709,0.0
53426.0,STARLINK-4558,PAYLOAD,2023-12-16 14:42:19,15.08843783,0.0001348,53.216,158.8088,94.8112,265.3034,0.00010323,1.356e-05,0.0,0 STARLINK-4558,1 53426U 22097AQ  23350.61272072  .00001356  00000-0  10323-3 0  9997,2 53426  53.2160 158.8088 0001348  94.8112 265.3034 15.08843783 75886,6917.869,95.437,540.666,538.801,0.0
53426.0,STARLINK-4558,PAYLOAD,2023-12-16 17:53:05,15.0884509,0.0001377,53.2162,158.214,90.466,269.649,0.00011175,1.491e-05,0.0,0 STARLINK-4558,1 53426U 22097AQ  23350.74519988  .00001491  00000-0  11175-3 0  9997,2 53426  53.2162 158.2140 0001377  90.4660 269.6490 15.08845090 75429,6917.865,95.437,540.682,538.777,0.0
53426.0,STARLINK-4558,PAYLOAD,2023-12-17 14:33:06,15.08841708,0.000145,53.2174,154.3541,95.5893,264.5265,5.1409e-05,5.3e-06,0.0,0 STARLINK-4558,1 53426U 22097AQ  23351.60632412  .00000530  00000-0  51409-4 0  9999,2 53426  53.2174 154.3541 0001450  95.5893 264.5265 15.08841708 76034,6917.875,95.437,540.743,538.737,0.0
53426.0,STARLINK-4558,PAYLOAD,2023-12-17 17:43:52,15.08841745,0.0001451,53.2173,153.7571,96.8705,263.2452,4.7606e-05,4.7e-06,0.0,0 STARLINK-4558,1 53426U 22097AQ  23351.73880345  .00000470  00000-0  47606-4 0  9990,2 53426  53.2173 153.7571 0001451  96.8705 263.2452 15.08841745 75579,6917.875,95.437,540.744,538.736,0.0
53426.0,STARLINK-4558,PAYLOAD,2023-12-18 14:23:53,15.08842734,0.0001551,53.218,149.8944,108.3053,251.8108,5.625e-05,6.07e-06,0.0,0 STARLINK-4558,1 53426U 22097AQ  23352.59992148  .00000607  00000-0  56250-4 0  9997,2 53426  53.2180 149.8944 0001551 108.3053 251.8108 15.08842734 76181,6917.872,95.437,540.81,538.664,0.0
53426.0,STARLINK-4558,PAYLOAD,2023-12-18 15:59:16,15.08843091,0.0001524,53.2178,149.5967,106.3783,253.7377,5.6327e-05,6.09e-06,0.0,0 STARLINK-4558,1 53426U 22097AQ  23352.66616109  .00000609  00000-0  56327-4 0  9992,2 53426  53.2178 149.5967 0001524 106.3783 253.7377 15.08843091 76195,6917.871,95.437,540.79,538.682,0.0
53426.0,STARLINK-4558,PAYLOAD,2023-12-19 14:14:41,15.08827502,0.0001614,53.2171,145.4301,120.3576,239.7576,-2.4627e-05,-6.8e-06,0.0,0 STARLINK-4558,1 53426U 22097AQ  23353.59353779 -.00000680  00000-0 -24627-4 0  9995,2 53426  53.2171 145.4301 0001614 120.3576 239.7576 15.08827502 76331,6917.919,95.438,540.9,538.667,0.0
53426.0,STARLINK-4558,PAYLOAD,2023-12-19 17:25:28,15.08825669,0.0001184,53.2162,144.8326,99.5522,260.5603,-4.9446e-05,-1.074e-05,0.0,0 STARLINK-4558,1 53426U 22097AQ  23353.72602112 -.00001074  00000-0 -49446-4 0  9992,2 53426  53.2162 144.8326 0001184  99.5522 260.5603 15.08825669 75874,6917.924,95.438,540.608,538.97,0.0
53426.0,STARLINK-4558,PAYLOAD,2023-12-20 17:16:14,15.0883069,0.0001232,53.2167,140.3767,99.3035,260.8097,0.00024867,3.671e-05,0.0,0 STARLINK-4558,1 53426U 22097AQ  23354.71961795  .00003671  00000-0  24867-3 0  9999,2 53426  53.2167 140.3767 0001232  99.3035 260.8097 15.08830690 76028,6917.909,95.438,540.626,538.922,0.0
53426.0,STARLINK-4558,PAYLOAD,2023-12-21 13:56:15,15.08848627,0.0001089,53.2162,136.5081,89.2421,270.8696,0.00034655,5.233e-05,0.0,0 STARLINK-4558,1 53426U 22097AQ  23355.58073287  .00005233  00000-0  34655-3 0  9997,2 53426  53.2162 136.5081 0001089  89.2421 270.8696 15.08848627 76638,6917.854,95.437,540.472,538.966,0.0
53426.0,STARLINK-4558,PAYLOAD,2023-12-21 15:31:38,15.08851367,0.000112,53.2159,136.209,83.2841,276.8278,0.00039217,5.961e-05,0.0,0 STARLINK-4558,1 53426U 22097AQ  23355.64697195  .00005961  00000-0  39217-3 0  9991,2 53426  53.2159 136.2090 0001120  83.2841 276.8278 15.08851367 76162,6917.846,95.437,540.485,538.936,0.0
53426.0,STARLINK-4558,PAYLOAD,2023-12-22 13:47:02,15.08852192,0.0001247,53.216,132.0478,86.217,273.8965,0.00013989,1.94e-05,0.0,0 STARLINK-4558,1 53426U 22097AQ  23356.57432892  .00001940  00000-0  13989-3 0  9996,2 53426  53.2160 132.0478 0001247  86.2170 273.8965 15.08852192 76781,6917.843,95.437,540.571,538.845,0.0
